{"version": 0.6, "generator": "Overpass API 0.7.62.5 1bd436f1", "osm3s": {"timestamp_osm_base": "2025-05-19T20:30:29Z", "copyright": "The data included in this document is from www.openstreetmap.org. The data is made available under ODbL."}, "elements": [{"type": "node", "id": 618432079, "lat": 34.1460735, "lon": -118.1217528, "tags": {"bus": "yes", "highway": "bus_stop", "name": "Colorado & Hill", "network": "Metro Local;Foothill Transit", "network:wikidata": "Q77610;Q5466493", "operator": "Los Angeles County Metropolitan Transportation Authority", "operator:wikidata": "Q3259702", "public_transport": "platform"}}, {"type": "node", "id": 618432215, "lat": 34.1458708, "lon": -118.120927, "tags": {"bench": "yes", "bus": "yes", "highway": "bus_stop", "name": "Colorado & Hill", "network": "Metro Local;Foothill Transit", "network:wikidata": "Q77610;Q5466493", "operator": "Los Angeles County Metropolitan Transportation Authority", "operator:wikidata": "Q3259702", "public_transport": "platform", "shelter": "yes"}}, {"type": "node", "id": 843455500, "lat": 34.135769, "lon": -118.136581, "tags": {"bus": "yes", "highway": "bus_stop", "name": "Pasadena ARTS", "public_transport": "platform", "ref": "20", "shelter": "no", "source": "usgs_imagery;survey;image", "source_ref": "AM909_DSCV2783", "towards": "North Lake / Woodbury"}}, {"type": "node", "id": 843455540, "lat": 34.1357875, "lon": -118.136544, "tags": {"bus": "yes", "highway": "bus_stop", "name": "Metro", "network": "Metro Local", "network:wikidata": "Q77610", "operator": "Los Angeles County Metropolitan Transportation Authority", "operator:wikidata": "Q3259702", "public_transport": "platform", "ref": "177;177", "shelter": "no", "source": "usgs_imagery;survey;image", "source_ref": "AM909_DSCV2783", "towards": "Sierra Madre Villa / Gold Line Station;Pasadena City College"}}, {"type": "node", "id": 844352128, "lat": 34.138, "lon": -118.121178, "tags": {"bus": "yes", "highway": "bus_stop", "name": "Metro", "public_transport": "platform", "ref": "177;177", "shelter": "no", "source": "usgs_imagery;survey;image", "source_ref": "AM909_DSCV2801", "towards": "Sierra Madre Villa / Gold Line Station;Pasadena City College"}}, {"type": "node", "id": 844352152, "lat": 34.1361942, "lon": -118.121181, "tags": {"bus": "yes", "highway": "bus_stop", "name": "Metro", "public_transport": "platform", "ref": "177;177", "shelter": "no", "source": "usgs_imagery;survey;image", "source_ref": "AM909_DSCV2798", "towards": "Sierra Madre Villa / Gold Line Station;Pasadena City College"}}, {"type": "node", "id": 844352190, "lat": 34.1357826, "lon": -118.126376, "tags": {"bus": "yes", "highway": "bus_stop", "name": "Metro", "public_transport": "platform", "ref": "177;177", "shelter": "no", "source": "usgs_imagery;survey;image", "source_ref": "AM909_DSCV2793", "towards": "Sierra Madre Villa / Gold Line Station;Pasadena City College"}}, {"type": "node", "id": 844352193, "lat": 34.1376438, "lon": -118.121358, "tags": {"bus": "yes", "highway": "bus_stop", "name": "Metro", "public_transport": "platform", "ref": "177", "shelter": "no", "source": "usgs_imagery;survey;image", "source_ref": "AM909_DSCV2800"}}, {"type": "node", "id": 844945134, "lat": 34.141071, "lon": -118.124726, "tags": {"bench": "yes", "bin": "yes", "bus": "yes", "departures_board": "no", "highway": "bus_stop", "lit": "yes", "name": "Del Mar / Chester", "network": "Metro Local;Pasadena Transit", "operator": "LACMTA;Pasadena Transit", "public_transport": "platform", "ref": "1375", "shelter": "no", "source": "usgs_imagery;survey;image", "source_ref": "AM909_DSCV2821", "tactile_paving": "no", "towards": "Altadena / Altadena & Lake Av;Old Pasadena"}}, {"type": "node", "id": 844945158, "lat": 34.1498031, "lon": -118.121247, "tags": {"bus": "yes", "highway": "bus_stop", "name": "Metro", "public_transport": "platform", "ref": "177", "shelter": "yes", "source": "usgs_imagery;survey;image", "source_ref": "AM909_DSCV2871"}}, {"type": "node", "id": 844945505, "lat": 34.146446, "lon": -118.1212563, "tags": {"bus": "yes", "hgv": "designated", "highway": "bus_stop", "name": "Metro 256", "operator": "Metro", "public_transport": "platform", "source": "usgs_imagery;survey;image", "source_ref": "AM909_DSCV2863"}}, {"type": "node", "id": 845426321, "lat": 34.1693566, "lon": -118.121408, "tags": {"bench": "yes", "bin": "yes", "bus": "yes", "highway": "bus_stop", "lit": "yes", "name": "Metro", "public_transport": "platform", "ref": "256", "shelter": "no", "source": "usgs_imagery;survey;image", "source_ref": "AM909_DSCV2902", "tactile_paving": "no", "towards": "Pasadena / Altadena"}}, {"type": "node", "id": 845426329, "lat": 34.1580669, "lon": -118.12135, "tags": {"bench": "no", "bin": "no", "bus": "yes", "highway": "bus_stop", "lit": "no", "name": "Metro", "public_transport": "platform", "ref": "256", "shelter": "no", "source": "usgs_imagery;survey;image", "source_ref": "AM909_DSCV2886", "tactile_paving": "no"}}, {"type": "node", "id": 845426370, "lat": 34.1621952, "lon": -118.121396, "tags": {"bench": "no", "bin": "no", "bus": "yes", "highway": "bus_stop", "lit": "no", "name": "Metro", "public_transport": "platform", "ref": "256", "shelter": "no", "source": "usgs_imagery;survey;image", "source_ref": "AM909_DSCV2897", "tactile_paving": "no", "towards": "Pasadena / Altadena"}}, {"type": "node", "id": 847726961, "lat": 34.1787319, "lon": -118.159758, "tags": {"bus": "yes", "highway": "bus_stop", "name": "Metro", "network": "Metro Local", "network:wikidata": "Q77610", "operator": "Los Angeles County Metropolitan Transportation Authority", "operator:wikidata": "Q3259702", "public_transport": "platform", "ref": "267;268", "shelter": "yes", "source": "usgs_imagery;survey;image", "source_ref": "AM909_DSCV3124"}}, {"type": "node", "id": 847726965, "lat": 34.1770761, "lon": -118.159764, "tags": {"bus": "yes", "highway": "bus_stop", "name": "Metro", "network": "Metro Local", "network:wikidata": "Q77610", "operator": "Los Angeles County Metropolitan Transportation Authority", "operator:wikidata": "Q3259702", "public_transport": "platform", "ref": "267;268", "shelter": "yes", "source": "usgs_imagery;survey;image", "source_ref": "AM909_DSCV3126"}}, {"type": "node", "id": 848301108, "lat": 34.1754839, "lon": -118.176896, "tags": {"bench": "no", "bin": "no", "bus": "yes", "highway": "bus_stop", "lit": "no", "name": "Pasadena ARTS", "public_transport": "platform", "ref": "52", "shelter": "no", "source": "usgs_imagery;survey;image", "source_ref": "AM909_DSCV3194", "tactile_paving": "no"}}, {"type": "node", "id": 848399630, "lat": 34.1562556, "lon": -118.166461, "tags": {"bus": "yes", "highway": "bus_stop", "name": "Pasadena ARTS", "public_transport": "platform", "ref": "51;52", "shelter": "no", "source": "usgs_imagery;survey;image", "source_ref": "AM909_DSCV3231"}}, {"type": "node", "id": 849160500, "lat": 34.1684869, "lon": -118.150805, "tags": {"bus": "yes", "hgv": "designated", "highway": "bus_stop", "name": "Metro;Pasadena ARTS 20", "operator": "Metro;Pasadena Transit", "public_transport": "platform", "source": "usgs_imagery;survey;image", "source_ref": "AM909_DSCV3388"}}, {"type": "node", "id": 849160501, "lat": 34.181288, "lon": -118.150681, "tags": {"bus": "yes", "hgv": "designated", "highway": "bus_stop", "name": "Metro;Pasadena ARTS 20", "operator": "Metro;Pasadena Transit", "public_transport": "platform", "source": "usgs_imagery;survey;image", "source_ref": "AM909_DSCV3378"}}, {"type": "node", "id": 849193295, "lat": 34.1638411, "lon": -118.150533, "tags": {"bus": "yes", "highway": "bus_stop", "name": "Metro;Pasadena ARTS 20", "operator": "Metro;Pasadena Transit", "public_transport": "platform", "ref": "260;20", "shelter": "yes", "source": "usgs_imagery;survey;image", "source_ref": "AM909_DSCV3396"}}, {"type": "node", "id": 849193296, "lat": 34.1648058, "lon": -118.150762, "tags": {"bus": "yes", "highway": "bus_stop", "name": "Metro;Pasadena ARTS 20", "operator": "Metro;Pasadena Transit", "public_transport": "platform", "source": "usgs_imagery;survey;image", "source_ref": "AM909_DSCV3394"}}, {"type": "node", "id": 849193299, "lat": 34.1672693, "lon": -118.150552, "tags": {"bus": "yes", "highway": "bus_stop", "layover": "yes", "name": "Metro;Pasadena ARTS 20", "operator": "Metro;Pasadena Transit", "public_transport": "platform", "ref": "762", "shelter": "no", "source": "usgs_imagery;survey;image", "source_ref": "AM909_DSCV3392"}}, {"type": "node", "id": 849193300, "lat": 34.1635963, "lon": -118.1507923, "tags": {"bus": "yes", "highway": "bus_stop", "name": "Metro;Pasadena ARTS 20", "operator": "Metro;Pasadena Transit", "public_transport": "platform", "ref": "260;20", "shelter": "no", "source": "usgs_imagery;survey;image", "source_ref": "AM909_DSCV3397"}}, {"type": "node", "id": 852777083, "lat": 34.1574396, "lon": -118.150696, "tags": {"bus": "yes", "highway": "bus_stop", "name": "Metro;Pasadena ARTS 51, 51s", "operator": "Metro;Pasadena Transit", "public_transport": "platform", "ref": "260;762;51;52", "shelter": "no", "source": "usgs_imagery;survey;image", "source_ref": "AM909_DSCV3409", "towards": ";;South Raymond"}}, {"type": "node", "id": 852777088, "lat": 34.161218, "lon": -118.150734, "tags": {"bus": "yes", "hgv": "designated", "highway": "bus_stop", "name": "Metro;Pasadena ARTS 20, 51, 51s", "operator": "Metro;Pasadena Transit", "public_transport": "platform", "source": "usgs_imagery;survey;image", "source_ref": "AM909_DSCV3399"}}, {"type": "node", "id": 852777092, "lat": 34.1542888, "lon": -118.150665, "tags": {"bus": "yes", "highway": "bus_stop", "name": "Metro;Pasadena ARTS 51, 51s", "operator": "Metro;Pasadena Transit", "public_transport": "platform", "ref": "260;51;52", "shelter": "yes", "source": "usgs_imagery;survey;image", "source_ref": "AM909_DSCV3414", "towards": "Artesia / Blue Line Station;South Raymond;South Raymond"}}, {"type": "node", "id": 852777095, "lat": 34.1598975, "lon": -118.150703, "tags": {"bus": "yes", "highway": "bus_stop", "name": "Metro", "operator": "Metro", "public_transport": "platform", "ref": "260;20;51;52", "shelter": "no", "source": "usgs_imagery;survey;image", "source_ref": "AM909_DSCV3404", "towards": ";South Fair Oaks;South Raymond;South Raymond"}}, {"type": "node", "id": 988903853, "lat": 34.1299423, "lon": -118.1502135, "tags": {"bus": "yes", "highway": "bus_stop", "public_transport": "platform"}}, {"type": "node", "id": 988903863, "lat": 34.1318684, "lon": -118.150229, "tags": {"bus": "yes", "highway": "bus_stop", "operator": "LACMTA", "public_transport": "platform", "route": "260"}}, {"type": "node", "id": 988903872, "lat": 34.1277254, "lon": -118.150202, "tags": {"bus": "yes", "description": "260; 762", "highway": "bus_stop", "operator": "LACMTA", "public_transport": "platform", "source": "survey"}}, {"type": "node", "id": 988917171, "lat": 34.1343583, "lon": -118.150243, "tags": {"bus": "yes", "highway": "bus_stop", "operator": "LACMTA", "public_transport": "platform", "route": "260"}}, {"type": "node", "id": 988927675, "lat": 34.1356959, "lon": -118.15002, "tags": {"bus": "yes", "highway": "bus_stop", "operator": "LACMTA", "public_transport": "platform"}}, {"type": "node", "id": 1117296767, "lat": 34.1457611, "lon": -118.1386184, "tags": {"bus": "yes", "highway": "bus_stop", "name": "Colorado / Madison", "network": "Metro Local;Pasadena Transit", "network:wikidata": "Q77610;Q7141527", "operator": "Los Angeles County Metropolitan Transportation Authority;First Transit", "operator:wikidata": "Q3259702;Q5453919", "public_transport": "platform"}}, {"type": "node", "id": 1117296772, "lat": 34.1457724, "lon": -118.136653, "tags": {"bench": "yes", "bin": "no", "bus": "yes", "departures_board": "no", "highway": "bus_stop", "lit": "yes", "name": "Colorado & El Molino", "network": "Pasadena Transit;Foothill Transit", "network:wikidata": "Q7141527;Q5466493", "operator": "First Transit", "operator:wikidata": "Q5453919", "public_transport": "platform", "ref": "1322", "shelter": "no", "tactile_paving": "no"}}, {"type": "node", "id": 1117296779, "lat": 34.1457879, "lon": -118.134917, "tags": {"bench": "yes", "bus": "yes", "highway": "bus_stop", "name": "Colorado / Oak Knoll", "network": "Metro Local;Pasadena Transit", "network:wikidata": "Q77610;Q7141527", "operator": "Los Angeles County Metropolitan Transportation Authority;First Transit", "operator:wikidata": "Q3259702;Q5453919", "public_transport": "platform", "shelter": "no", "source": "survey"}}, {"type": "node", "id": 1117296792, "lat": 34.1457602, "lon": -118.139369, "tags": {"bench": "yes", "bin": "yes", "bus": "yes", "departures_board": "no", "highway": "bus_stop", "lit": "yes", "name": "Colorado & Oakland", "network": "Pasadena Transit", "network:wikidata": "Q7141527", "operator": "First Transit", "operator:wikidata": "Q5453919", "public_transport": "platform", "ref": "1337", "shelter": "no", "tactile_paving": "no"}}, {"type": "node", "id": 1120022563, "lat": 34.145858, "lon": -118.15253, "tags": {"bench": "yes", "bin": "yes", "bus": "yes", "departures_board": "timetable", "highway": "bus_stop", "lit": "yes", "name": "Colorado / De Lacey", "network": "Metro Local;Pasadena Transit", "network:wikidata": "Q77610;Q7141527", "operator": "Los Angeles County Metropolitan Transportation Authority;First Transit", "operator:wikidata": "Q3259702;Q5453919", "public_transport": "platform", "ref": "15920", "shelter": "no", "tactile_paving": "no"}}, {"type": "node", "id": 1168394882, "lat": 34.1461033, "lon": -118.1160551, "tags": {"bench": "yes", "bus": "yes", "highway": "bus_stop", "name": "Colorado & Bonnie", "network": "Metro Local", "network:wikidata": "Q77610", "operator": "Los Angeles County Metropolitan Transportation Authority", "operator:wikidata": "Q3259702", "public_transport": "platform", "shelter": "no"}}, {"type": "node", "id": 1240305036, "lat": 34.1419408, "lon": -118.0947224, "tags": {"bench": "yes", "bus": "yes", "ele": "217", "highway": "bus_stop", "operator": "LACMTA", "public_transport": "platform", "route_ref": "487", "source": "survey"}}, {"type": "node", "id": 1240305056, "lat": 34.1376329, "lon": -118.094692, "tags": {"bench": "yes", "bus": "yes", "ele": "197", "highway": "bus_stop", "operator": "LACMTA", "public_transport": "platform", "route_ref": "487", "source": "survey"}}, {"type": "node", "id": 1279278336, "lat": 34.1404992, "lon": -118.134088, "tags": {"bus": "yes", "highway": "bus_stop", "operator": "LACMTA", "public_transport": "platform", "route": "267", "source": "survey"}}, {"type": "node", "id": 1540321955, "lat": 34.1688317, "lon": -118.185587, "tags": {"bus": "yes", "highway": "bus_stop", "public_transport": "platform"}}, {"type": "node", "id": 1540321963, "lat": 34.1691534, "lon": -118.18541, "tags": {"bus": "yes", "highway": "bus_stop", "public_transport": "platform"}}, {"type": "node", "id": 1540321978, "lat": 34.1673581, "lon": -118.184581, "tags": {"bus": "yes", "highway": "bus_stop", "public_transport": "platform"}}, {"type": "node", "id": 1768767620, "lat": 34.1460914, "lon": -118.0863953, "tags": {"bus": "yes", "highway": "bus_stop", "public_transport": "platform", "source": "survey"}}, {"type": "node", "id": 1768767655, "lat": 34.1463243, "lon": -118.0865612, "tags": {"bus": "yes", "highway": "bus_stop", "operator": "LACMTA", "public_transport": "platform", "route": "181", "shelter": "yes", "source": "survey"}}, {"type": "node", "id": 1768773383, "lat": 34.1462798, "lon": -118.0909225, "tags": {"bus": "yes", "highway": "bus_stop", "operator": "LACMTA", "public_transport": "platform", "route": "181", "source": "survey"}}, {"type": "node", "id": 2129846570, "lat": 34.1459261, "lon": -118.1447241, "tags": {"bench": "yes", "bin": "yes", "bus": "yes", "departures_board": "timetable", "highway": "bus_stop", "lit": "yes", "name": "Colorado / Garfield", "network": "Metro Local;Pasadena Transit;Foothill Transit", "network:wikidata": "Q77610;Q7141527;Q5466493", "operator": "Los Angeles County Metropolitan Transportation Authority;First Transit", "operator:wikidata": "Q3259702;Q5453919", "public_transport": "platform", "ref": "9850", "shelter": "yes", "tactile_paving": "no"}}, {"type": "node", "id": 2421474932, "lat": 34.1420034, "lon": -118.117515, "tags": {"bench": "yes", "bin": "yes", "bus": "yes", "departures_board": "no", "highway": "bus_stop", "lit": "yes", "name": "Del Mar / Sierra Bonita", "network": "Metro Local;Pasadena Transit", "operator": "LACMTA;Pasadena Transit", "public_transport": "platform", "ref": "1386", "shelter": "no", "tactile_paving": "no"}}, {"type": "node", "id": 2421488075, "lat": 34.1420105, "lon": -118.1160144, "tags": {"bus": "yes", "highway": "bus_stop", "public_transport": "platform"}}, {"type": "node", "id": 2450046767, "lat": 34.1443281, "lon": -118.132483, "tags": {"bench": "yes", "bin": "yes", "bus": "yes", "departures_board": "timetable", "highway": "bus_stop", "lit": "yes", "name": "Lake Ave & Green St", "network": "Pasadena Transit", "network:wikidata": "Q7141527", "operator": "First Transit", "operator:wikidata": "Q5453919", "public_transport": "platform", "ref": "13680", "shelter": "no", "tactile_paving": "no"}}, {"type": "node", "id": 2450046803, "lat": 34.1428363, "lon": -118.132212, "tags": {"bench": "yes", "bin": "yes", "bus": "yes", "departures_board": "no", "highway": "bus_stop", "lit": "yes", "name": "Lake Ave & Cordova St", "network": "Pasadena Transit;Commuter Express", "operator": "Pasadena Transit;LADOT", "public_transport": "platform", "ref": "5230", "shelter": "no", "tactile_paving": "no"}}, {"type": "node", "id": 2450046804, "lat": 34.1422351, "lon": -118.132463, "tags": {"bench": "yes", "bin": "yes", "bus": "yes", "departures_board": "timetable", "highway": "bus_stop", "lit": "yes", "name": "Lake Ave & Cordova St", "network": "Pasadena Transit", "network:wikidata": "Q7141527", "operator": "First Transit", "operator:wikidata": "Q5453919", "public_transport": "platform", "ref": "13677", "shelter": "yes", "tactile_paving": "no"}}, {"type": "node", "id": 2450046832, "lat": 34.1406631, "lon": -118.1320225, "tags": {"bench": "yes", "bin": "yes", "bus": "yes", "departures_board": "timetable", "highway": "bus_stop", "lit": "yes", "name": "Del Mar / Lake", "network": "Metro Local;Pasadena Transit", "operator": "LACMTA;Pasadena Transit", "public_transport": "platform", "ref": "9909", "shelter": "yes", "tactile_paving": "no"}}, {"type": "node", "id": 3985184661, "lat": 34.1375738, "lon": -118.132411, "tags": {"bus": "yes", "highway": "bus_stop", "public_transport": "platform"}}, {"type": "node", "id": 4167705389, "lat": 34.1712046, "lon": -118.18706, "tags": {"bus": "yes", "highway": "bus_stop", "name": "Art Center", "operator": "City of Pasadena Department of Transportation", "public_transport": "platform", "ref": "51"}}, {"type": "node", "id": 4167705390, "lat": 34.1714731, "lon": -118.180433, "tags": {"bus": "yes", "highway": "bus_stop", "name": "Lida / Arroyo", "operator": "City of Pasadena Department of Transportation", "public_transport": "platform", "ref": "51"}}, {"type": "node", "id": 4167705391, "lat": 34.1713688, "lon": -118.181141, "tags": {"bus": "yes", "highway": "bus_stop", "name": "Lida / Vista", "operator": "City of Pasadena Department of Transportation", "public_transport": "platform", "ref": "51"}}, {"type": "node", "id": 4224077196, "lat": 34.145936, "lon": -118.1432613, "tags": {"bench": "yes", "bin": "yes", "bus": "yes", "departures_board": "timetable", "highway": "bus_stop", "lit": "yes", "name": "Colorado & Euclid", "network": "Pasadena Transit", "network:wikidata": "Q7141527", "network:wikipedia": "en:Pasadena Transit", "operator": "First Transit", "operator:wikidata": "Q5453919", "public_transport": "platform", "ref": "9848", "shelter": "yes", "tactile_paving": "no"}}, {"type": "node", "id": 4224077198, "lat": 34.1458913, "lon": -118.1480967, "tags": {"bench": "yes", "bin": "yes", "bus": "yes", "departures_board": "timetable", "highway": "bus_stop", "lit": "yes", "name": "Colorado / Arroyo Parkway", "network": "Metro Local;Pasadena Transit", "network:wikidata": "Q77610;Q7141527", "operator": "Los Angeles County Metropolitan Transportation Authority;First Transit", "operator:wikidata": "Q3259702;Q5453919", "public_transport": "platform", "ref": "09843", "shelter": "no", "tactile_paving": "no"}}, {"type": "node", "id": 4224077201, "lat": 34.1416694, "lon": -118.1216045, "tags": {"bench": "yes", "bin": "yes", "bus": "yes", "departures_board": "no", "highway": "bus_stop", "lit": "yes", "name": "Del Mar / Hill", "network": "Metro Local;Pasadena Transit", "operator": "LACMTA;Pasadena Transit", "public_transport": "platform", "ref": "9544", "shelter": "no", "tactile_paving": "no"}}, {"type": "node", "id": 4224077202, "lat": 34.1408705, "lon": -118.127824, "tags": {"bench": "no", "bin": "no", "bus": "yes", "departures_board": "no", "highway": "bus_stop", "lit": "no", "name": "Del Mar / Wilson", "network": "Metro Local;Pasadena Transit", "operator": "LACMTA;Pasadena Transit", "public_transport": "platform", "ref": "9915", "shelter": "no", "tactile_paving": "no"}}, {"type": "node", "id": 4224081498, "lat": 34.1497893, "lon": -118.0938383, "tags": {"bus": "yes", "highway": "bus_stop", "name": "Metro 264, 487;Foothill Transit 187;Pasadena 31", "operator": "Foothill Transit;Metro;Pasadena Transit", "public_transport": "platform"}}, {"type": "node", "id": 4224081502, "lat": 34.1459776, "lon": -118.1371777, "tags": {"bench": "yes", "bus": "yes", "highway": "bus_stop", "name": "Coloado & El Molino", "network": "Pasadena Transit", "network:wikidata": "Q7141527", "operator": "First Transit", "operator:wikidata": "Q5453919", "public_transport": "platform", "shelter": "no"}}, {"type": "node", "id": 4224081504, "lat": 34.1459409, "lon": -118.1420288, "tags": {"bench": "yes", "bin": "yes", "bus": "yes", "departures_board": "timetable", "highway": "bus_stop", "lit": "yes", "name": "Colorado / Los Robles", "network": "Metro Local;Pasadena Transit;Foothill Transit", "network:wikidata": "Q77610;Q7141527;Q5466493", "operator": "Los Angeles County Metropolitan Transportation Authority;First Transit", "operator:wikidata": "Q3259702;Q5453919", "public_transport": "platform", "ref": "9859", "shelter": "no", "tactile_paving": "no"}}, {"type": "node", "id": 4224081506, "lat": 34.1467201, "lon": -118.148838, "tags": {"bus": "yes", "highway": "bus_stop", "name": "Foothill Transit 187", "network": "Foothill Transit", "network:wikidata": "Q5466493", "operator": "Foothill Transit", "public_transport": "platform"}}, {"type": "node", "id": 4224085991, "lat": 34.1497859, "lon": -118.0735781, "tags": {"bus": "yes", "highway": "bus_stop", "name": "Metro 181, 266;Foothill Transit 187", "operator": "Foothill Transit;Metro", "public_transport": "platform"}}, {"type": "node", "id": 4224086201, "lat": 34.1517299, "lon": -118.116973, "tags": {"bench": "no", "bin": "no", "bus": "yes", "departures_board": "no", "highway": "bus_stop", "lit": "yes", "name": "Corson St & Sierra Bonita Ave", "network": "Pasadena Transit", "network:wikidata": "Q7141527", "operator": "First Transit", "operator:wikidata": "Q5453919", "public_transport": "platform", "ref": "9070", "shelter": "no", "tactile_paving": "no"}}, {"type": "node", "id": 4224086202, "lat": 34.14203, "lon": -118.115404, "tags": {"bench": "yes", "bin": "yes", "bus": "yes", "highway": "bus_stop", "lit": "yes", "name": "Del Mar Blvd & Bonnie Ave", "network": "Pasadena Transit", "network:wikidata": "Q7141527", "operator": "First Transit", "operator:wikidata": "Q5453919", "public_transport": "platform", "ref": "27", "shelter": "no", "tactile_paving": "no"}}, {"type": "node", "id": 4224086203, "lat": 34.1420718, "lon": -118.113478, "tags": {"bench": "no", "bin": "no", "bus": "yes", "departures_board": "no", "highway": "bus_stop", "lit": "yes", "name": "Del Mar / Allen", "network": "Metro Local;Pasadena Transit", "operator": "LACMTA;Pasadena Transit", "public_transport": "platform", "ref": "1371", "shelter": "no", "tactile_paving": "no"}}, {"type": "node", "id": 4224087191, "lat": 34.149915, "lon": -118.085341, "tags": {"bus": "yes", "highway": "bus_stop", "name": "Foothill Transit 187", "network": "Foothill Transit", "network:wikidata": "Q5466493", "operator": "Foothill Transit", "public_transport": "platform"}}, {"type": "node", "id": 4224087192, "lat": 34.1460099, "lon": -118.1297295, "tags": {"bench": "yes", "bus": "yes", "highway": "bus_stop", "name": "Colorado & Catalina", "network": "Metro Local;Foothill Transit", "network:wikidata": "Q77610;Q5466493", "operator": "Los Angeles County Metropolitan Transportation Authority", "operator:wikidata": "Q3259702", "public_transport": "platform", "shelter": "no"}}, {"type": "node", "id": 4224087194, "lat": 34.1487582, "lon": -118.148819, "tags": {"bus": "yes", "highway": "bus_stop", "name": "Foothill Transit 187", "network": "Foothill Transit", "network:wikidata": "Q5466493", "operator": "Foothill Transit", "public_transport": "platform"}}, {"type": "node", "id": 4224087196, "lat": 34.151369, "lon": -118.113354, "tags": {"bench": "yes", "bin": "yes", "bus": "yes", "departures_board": "timetable", "highway": "bus_stop", "lit": "yes", "name": "Allen Ave & Corson St", "network": "Pasadena Transit", "network:wikidata": "Q7141527", "operator": "First Transit", "operator:wikidata": "Q5453919", "public_transport": "platform", "ref": "11821", "shelter": "no", "tactile_paving": "no"}}, {"type": "node", "id": 4224087197, "lat": 34.1418439, "lon": -118.1158138, "tags": {"bench": "yes", "bin": "yes", "bus": "yes", "departures_board": "timetable", "highway": "bus_stop", "lit": "yes", "name": "Del Mar / Bonnie", "network": "Metro Local;Pasadena Transit", "operator": "LACMTA;Pasadena Transit", "public_transport": "platform", "ref": "9901", "shelter": "yes", "tactile_paving": "no"}}, {"type": "node", "id": 4224087198, "lat": 34.1418805, "lon": -118.1216527, "tags": {"bench": "yes", "bin": "yes", "bus": "yes", "departures_board": "no", "highway": "bus_stop", "lit": "yes", "name": "Del Mar / Hill", "network": "Metro Local;Pasadena Transit", "operator": "LACMTA;Pasadena Transit", "public_transport": "platform", "ref": "1380", "shelter": "no", "tactile_paving": "no"}}, {"type": "node", "id": 4224087199, "lat": 34.1410298, "lon": -118.130643, "tags": {"bench": "no", "bin": "no", "bus": "yes", "departures_board": "no", "highway": "bus_stop", "lit": "yes", "name": "Del Mar / Mentor", "network": "Metro Local;Pasadena Transit", "operator": "LACMTA;Pasadena Transit", "public_transport": "platform", "ref": "1384", "shelter": "no", "tactile_paving": "no"}}, {"type": "node", "id": 4224087200, "lat": 34.1457577, "lon": -118.133635, "tags": {"bench": "yes", "bin": "yes", "bus": "yes", "departures_board": "no", "highway": "bus_stop", "lit": "yes", "name": "Colorado & Hudson", "network": "Pasadena Transit", "network:wikidata": "Q7141527", "operator": "First Transit", "operator:wikidata": "Q5453919", "public_transport": "platform", "ref": "1328", "shelter": "no", "tactile_paving": "no"}}, {"type": "node", "id": 4224097295, "lat": 34.1409362, "lon": -118.124343, "tags": {"bench": "yes", "bin": "yes", "bus": "yes", "departures_board": "no", "highway": "bus_stop", "lit": "yes", "name": "Del Mar / Chester", "network": "Metro Local;Pasadena Transit", "operator": "LACMTA;Pasadena Transit", "public_transport": "platform", "ref": "9902", "shelter": "no", "tactile_paving": "no"}}, {"type": "node", "id": 4224097296, "lat": 34.1410552, "lon": -118.127659, "tags": {"bench": "yes", "bin": "yes", "bus": "yes", "departures_board": "no", "highway": "bus_stop", "lit": "yes", "name": "Del Mar / Wilson", "network": "Metro Local;Pasadena Transit", "operator": "LACMTA;Pasadena Transit", "public_transport": "platform", "ref": "9915", "shelter": "no", "tactile_paving": "no"}}, {"type": "node", "id": 4224097298, "lat": 34.1408427, "lon": -118.130562, "tags": {"bench": "no", "bin": "no", "bus": "yes", "departures_board": "no", "highway": "bus_stop", "lit": "no", "name": "Del Mar / Mentor", "network": "Metro Local;Pasadena Transit", "operator": "LACMTA;Pasadena Transit", "public_transport": "platform", "ref": "9911", "shelter": "no", "tactile_paving": "no"}}, {"type": "node", "id": 4224114393, "lat": 34.1459115, "lon": -118.1464136, "tags": {"bench": "yes", "bin": "yes", "bus": "yes", "departures_board": "timetable", "highway": "bus_stop", "lit": "yes", "name": "Colorado & Marengo", "network": "Pasadena Transit;Foothill Transit", "network:wikidata": "Q7141527;Q5466493", "operator": "First Transit", "operator:wikidata": "Q5453919", "public_transport": "platform", "ref": "9862", "shelter": "yes", "tactile_paving": "no"}}, {"type": "node", "id": 4224114396, "lat": 34.1536212, "lon": -118.1135569, "tags": {"bus": "yes", "highway": "bus_stop", "name": "Pasadena 10", "public_transport": "platform"}}, {"type": "node", "id": 4224114400, "lat": 34.1460061, "lon": -118.134148, "tags": {"bench": "yes", "bin": "yes", "bus": "yes", "departures_board": "no", "highway": "bus_stop", "lit": "yes", "name": "Colorado & Hudson", "network": "Pasadena Transit", "network:wikidata": "Q7141527", "operator": "First Transit", "operator:wikidata": "Q5453919", "public_transport": "platform", "ref": "9854", "shelter": "yes", "tactile_paving": "no"}}, {"type": "node", "id": 4224118190, "lat": 34.1423379, "lon": -118.113048, "tags": {"bench": "no", "bin": "no", "bus": "yes", "departures_board": "no", "highway": "bus_stop", "lit": "no", "name": "Allen Ave & Del Mar Blvd", "network": "Pasadena Transit", "network:wikidata": "Q7141527", "operator": "First Transit", "operator:wikidata": "Q5453919", "public_transport": "platform", "ref": "18", "shelter": "no", "tactile_paving": "no"}}, {"type": "node", "id": 4224121690, "lat": 34.1453765, "lon": -118.1325429, "tags": {"bench": "yes", "bin": "yes", "bus": "yes", "departures_board": "timetable", "highway": "bus_stop", "lit": "yes", "name": "Lake / Colorado", "network": "Metro Local;Pasadena Transit;Commuter Express", "operator": "LACMTA;Pasadena Transit;LADOT", "public_transport": "platform", "ref": "3665", "shelter": "no", "tactile_paving": "no"}}, {"type": "node", "id": 4224123989, "lat": 34.149946, "lon": -118.113042, "tags": {"bench": "yes", "bin": "yes", "bus": "yes", "departures_board": "no", "highway": "bus_stop", "lit": "yes", "name": "Allen / Walnut", "network": "Metro Local;Pasadena Transit", "operator": "LACMTA;Pasadena Transit", "public_transport": "platform", "ref": "3340", "shelter": "yes", "tactile_paving": "no"}}, {"type": "node", "id": 4264659694, "lat": 34.1486902, "lon": -118.0811508, "tags": {"bus": "yes", "highway": "bus_stop", "name": "Metro 181, 264, 266, 268;Pasadena Transit 31, 40, 60", "operator": "Metro;Pasadena Transit", "public_transport": "platform"}}, {"type": "node", "id": 4264672092, "lat": 34.1548704, "lon": -118.0786804, "tags": {"bus": "yes", "highway": "bus_stop", "name": "Metro 268", "operator": "Metro", "public_transport": "platform"}}, {"type": "node", "id": 4264675293, "lat": 34.150395, "lon": -118.0683433, "tags": {"bus": "yes", "highway": "bus_stop", "name": "Metro 268", "operator": "Metro", "public_transport": "platform"}}, {"type": "node", "id": 4264675294, "lat": 34.1503624, "lon": -118.0708494, "tags": {"bus": "yes", "highway": "bus_stop", "name": "Metro 268", "operator": "Metro", "public_transport": "platform"}}, {"type": "node", "id": 4264679593, "lat": 34.1499796, "lon": -118.0821038, "tags": {"bus": "yes", "highway": "bus_stop", "name": "Metro 181, 264, 266, 268, 487;Pasadena Transit 31, 40, 60", "operator": "Metro;Pasadena Transit", "public_transport": "platform"}}, {"type": "node", "id": 4264679595, "lat": 34.1550707, "lon": -118.078523, "tags": {"bus": "yes", "highway": "bus_stop", "name": "Metro 268", "operator": "Metro", "public_transport": "platform"}}, {"type": "node", "id": 4264690591, "lat": 34.1578283, "lon": -118.0818051, "tags": {"bus": "yes", "highway": "bus_stop", "name": "Metro 268", "operator": "Metro", "public_transport": "platform"}}, {"type": "node", "id": 4264697891, "lat": 34.1504463, "lon": -118.0795947, "tags": {"bus": "yes", "highway": "bus_stop", "name": "Metro 268", "operator": "Metro", "public_transport": "platform"}}, {"type": "node", "id": 4264697892, "lat": 34.1579424, "lon": -118.0817696, "tags": {"bus": "yes", "highway": "bus_stop", "name": "Metro 268", "operator": "Metro", "public_transport": "platform"}}, {"type": "node", "id": 4264698890, "lat": 34.1500301, "lon": -118.0790881, "tags": {"bus": "yes", "highway": "bus_stop", "name": "Metro 181, 264, 266, 268", "operator": "Metro", "public_transport": "platform"}}, {"type": "node", "id": 4630500306, "lat": 34.1459602, "lon": -118.105848, "tags": {"bench": "yes", "bus": "yes", "highway": "bus_stop", "name": "Metro 181", "operator": "Metro", "public_transport": "platform", "shelter": "yes"}}, {"type": "node", "id": 4831724355, "lat": 34.1487703, "lon": -118.1416002, "tags": {"bench": "no", "bin": "yes", "bus": "yes", "highway": "bus_stop", "public_transport": "platform", "shelter": "no", "tactile_paving": "no"}}, {"type": "node", "id": 5417046627, "lat": 34.1420132, "lon": -118.101235, "tags": {"bench": "yes", "bus": "yes", "highway": "bus_stop", "public_transport": "platform", "shelter": "no"}}, {"type": "node", "id": 6387063780, "lat": 34.1332651, "lon": -118.1486772, "tags": {"bus": "yes", "highway": "bus_stop", "public_transport": "platform"}}, {"type": "node", "id": 6419898385, "lat": 34.1516804, "lon": -118.1325954, "tags": {"bus": "yes", "highway": "bus_stop", "name": "#12159. Bus 180", "public_transport": "platform"}}, {"type": "node", "id": 6434655785, "lat": 34.1459948, "lon": -118.132769, "tags": {"bench": "yes", "bin": "yes", "bus": "yes", "departures_board": "timetable", "highway": "bus_stop", "lit": "yes", "name": "Colorado / Lake", "network": "Metro Local;Pasadena Transit;Foothill Transit", "network:wikidata": "Q77610;Q7141527;Q5466493", "operator": "Los Angeles County Metropolitan Transportation Authority;First Transit", "operator:wikidata": "Q3259702;Q5453919", "public_transport": "platform", "ref": "3664", "shelter": "no", "tactile_paving": "no"}}, {"type": "node", "id": 6448669887, "lat": 34.1458187, "lon": -118.1602648, "tags": {"bench": "no", "bin": "no", "bus": "yes", "highway": "bus_stop", "lit": "yes", "name": "Colorado & Orange Grove", "network": "Metro Local;Pasadena Transit", "network:wikidata": "Q77610;Q7141527", "operator": "Los Angeles County Metropolitan Transportation Authority;First Transit", "operator:wikidata": "Q3259702;Q5453919", "public_transport": "platform", "ref": "41411", "shelter": "no", "tactile_paving": "no"}}, {"type": "node", "id": 6448669888, "lat": 34.1458276, "lon": -118.1579962, "tags": {"bench": "no", "bin": "no", "bus": "yes", "departures_board": "no", "highway": "bus_stop", "lit": "yes", "name": "Colorado / Terrace", "network": "Pasadena Transit;Metro Local", "network:wikidata": "Q7141527;Q77610", "network:wikipedia": "en:Pasadena Transit", "operator": "First Transit;Los Angeles County Metropolitan Transportation Authority", "operator:wikidata": "Q5453919;Q3259702", "public_transport": "platform", "ref": "15923", "shelter": "no", "tactile_paving": "no"}}, {"type": "node", "id": 6978430913, "lat": 34.1500463, "lon": -118.0912238, "tags": {"bench": "yes", "bus": "yes", "highway": "bus_stop", "lit": "yes", "name": "Metro 264, 487;Foothill Transit 187", "operator": "Foothill Transit;Metro", "public_transport": "platform", "shelter": "no", "source": "survey", "surface": "concrete"}}, {"type": "node", "id": 6978430914, "lat": 34.1501296, "lon": -118.085629, "tags": {"bench": "yes", "bus": "yes", "highway": "bus_stop", "lit": "yes", "name": "Foothill Transit 187", "network": "Foothill Transit", "network:wikidata": "Q5466493", "operator": "Foothill Transit", "public_transport": "platform", "shelter": "no", "source": "survey", "surface": "concrete"}}, {"type": "node", "id": 6978430915, "lat": 34.1460878, "lon": -118.118614, "tags": {"bench": "yes", "bus": "yes", "highway": "bus_stop", "lit": "no", "name": "Colorado & Marion", "network": "Metro Local", "network:wikidata": "Q77610", "operator": "Los Angeles County Metropolitan Transportation Authority", "operator:wikidata": "Q3259702", "public_transport": "platform", "route_ref": "686", "shelter": "yes"}}, {"type": "node", "id": 6978430917, "lat": 34.1461156, "lon": -118.1134779, "tags": {"bench": "yes", "bus": "yes", "highway": "bus_stop", "lit": "no", "name": "Colorado & Allen", "network": "Metro Local;Foothill Transit", "network:wikidata": "Q77610;Q5466493", "operator": "Los Angeles County Metropolitan Transportation Authority", "operator:wikidata": "Q3259702", "public_transport": "platform", "route_ref": "187;686", "shelter": "yes"}}, {"type": "node", "id": 6978430918, "lat": 34.1503309, "lon": -118.0738238, "tags": {"bench": "yes", "bus": "yes", "highway": "bus_stop", "lit": "yes", "name": "Metro 264, 266, 268;Foothill Transit 187;Pasadena Transit 40, 60", "network": "187", "operator": "Foothill Transit;Metro;Pasadena Transit", "public_transport": "platform", "shelter": "no", "source": "survey", "surface": "concrete"}}, {"type": "node", "id": 6978430919, "lat": 34.146143, "lon": -118.111019, "tags": {"bench": "yes", "bus": "yes", "highway": "bus_stop", "lit": "no", "name": "187 / Pasadena", "network": "Foothill Transit", "network:wikidata": "Q5466493", "operator": "Foothill Transit", "public_transport": "platform", "shelter": "yes", "source": "survey", "surface": "concrete"}}, {"type": "node", "id": 6978430920, "lat": 34.1461546, "lon": -118.1090127, "tags": {"bench": "yes", "bus": "yes", "highway": "bus_stop", "lit": "no", "name": "Metro 181", "operator": "Metro", "public_transport": "platform", "shelter": "yes", "source": "survey", "surface": "concrete"}}, {"type": "node", "id": 6978430921, "lat": 34.1461589, "lon": -118.1064516, "tags": {"bench": "yes", "bus": "yes", "highway": "bus_stop", "lit": "no", "name": "Metro 181", "operator": "Metro", "public_transport": "platform", "shelter": "yes", "source": "survey", "surface": "concrete"}}, {"type": "node", "id": 6978430922, "lat": 34.1461972, "lon": -118.1020656, "tags": {"bench": "yes", "bus": "yes", "highway": "bus_stop", "lit": "no", "name": "Metro 181;Foothill Transit 187", "operator": "Foothill Transit;Metro", "public_transport": "platform", "shelter": "yes", "source": "survey", "surface": "concrete"}}, {"type": "node", "id": 6978430923, "lat": 34.14624, "lon": -118.095055, "tags": {"bench": "yes", "bus": "yes", "highway": "bus_stop", "lit": "yes", "name": "Metro 181;Foothill Transit 187", "operator": "Foothill Transit;Metro", "public_transport": "platform", "shelter": "no", "source": "survey", "surface": "concrete"}}, {"type": "node", "id": 6978430924, "lat": 34.1495501, "lon": -118.0944212, "tags": {"bench": "yes", "bus": "yes", "highway": "bus_stop", "lit": "yes", "name": "Metro 487;Foothill Transit 187", "operator": "Foothill Transit;Metro", "public_transport": "platform", "shelter": "no", "source": "survey", "surface": "concrete"}}, {"type": "node", "id": 7096966074, "lat": 34.1509068, "lon": -118.073375, "tags": {"bus": "yes", "highway": "bus_stop", "name": "Pasadena Transit 40, 60", "network": "Pasadena Transit", "network:wikidata": "Q7141527", "operator": "First Transit", "operator:wikidata": "Q5453919", "public_transport": "platform"}}, {"type": "node", "id": 7097113412, "lat": 34.1502731, "lon": -118.075645, "tags": {"bus": "yes", "highway": "bus_stop", "name": "Pasadena Transit 40, 60", "network": "Pasadena Transit", "network:wikidata": "Q7141527", "operator": "First Transit", "operator:wikidata": "Q5453919", "public_transport": "platform"}}, {"type": "node", "id": 7097113413, "lat": 34.1501821, "lon": -118.082068, "tags": {"bus": "yes", "highway": "bus_stop", "name": "Foothill Transit 187", "network": "Foothill Transit", "network:wikidata": "Q5466493", "operator": "Foothill Transit", "public_transport": "platform"}}, {"type": "node", "id": 7097113414, "lat": 34.1501832, "lon": -118.0829346, "tags": {"bus": "yes", "highway": "bus_stop", "name": "Metro 264, 487;Pasadena Transit 31, 60", "operator": "Metro;Pasadena Transit", "public_transport": "platform"}}, {"type": "node", "id": 7097113415, "lat": 34.1505284, "lon": -118.082341, "tags": {"bus": "yes", "highway": "bus_stop", "name": "Pasadena Transit 31", "network": "Pasadena Transit", "network:wikidata": "Q7141527", "operator": "First Transit", "operator:wikidata": "Q5453919", "public_transport": "platform"}}, {"type": "node", "id": 7097113416, "lat": 34.1501233, "lon": -118.0859735, "tags": {"bus": "yes", "highway": "bus_stop", "name": "Metro 264, 487", "operator": "Metro", "public_transport": "platform"}}, {"type": "node", "id": 7097113417, "lat": 34.1499091, "lon": -118.086581, "tags": {"bus": "yes", "highway": "bus_stop", "name": "Metro 264, 487;Pasadena Transit 31", "operator": "Metro;Pasadena Transit", "public_transport": "platform"}}, {"type": "node", "id": 7097113418, "lat": 34.1498525, "lon": -118.089978, "tags": {"bus": "yes", "highway": "bus_stop", "name": "Metro 264, 487;Foothill Transit 187", "network": "Foothill Transit", "network:wikidata": "Q5466493", "operator": "Foothill Transit", "public_transport": "platform"}}, {"type": "node", "id": 7097113419, "lat": 34.1500944, "lon": -118.0940845, "tags": {"bus": "yes", "highway": "bus_stop", "name": "Metro 487", "operator": "Metro", "public_transport": "platform"}}, {"type": "node", "id": 7097113420, "lat": 34.1499868, "lon": -118.0946357, "tags": {"bus": "yes", "highway": "bus_stop", "name": "Metro 264;Pasadena Transit 31", "operator": "Metro;Pasadena Transit", "public_transport": "platform"}}, {"type": "node", "id": 7097113421, "lat": 34.1477626, "lon": -118.0946786, "tags": {"bus": "yes", "highway": "bus_stop", "name": "Metro 487", "operator": "Metro", "public_transport": "platform"}}, {"type": "node", "id": 7097113422, "lat": 34.147848, "lon": -118.0944654, "tags": {"bus": "yes", "highway": "bus_stop", "name": "Metro 487", "operator": "Metro", "public_transport": "platform"}}, {"type": "node", "id": 7097113423, "lat": 34.1465817, "lon": -118.0944788, "tags": {"bus": "yes", "highway": "bus_stop", "name": "Metro 487;Foothill Transit 187", "operator": "Foothill Transit;Metro", "public_transport": "platform"}}, {"type": "node", "id": 7097113424, "lat": 34.1460367, "lon": -118.0941958, "tags": {"bus": "yes", "highway": "bus_stop", "name": "Metro 181", "operator": "Metro", "public_transport": "platform"}}, {"type": "node", "id": 7097113425, "lat": 34.1459146, "lon": -118.0947242, "tags": {"bus": "yes", "highway": "bus_stop", "name": "Metro 487", "operator": "Metro", "public_transport": "platform"}}, {"type": "node", "id": 7097113426, "lat": 34.1462154, "lon": -118.0989514, "tags": {"bus": "yes", "highway": "bus_stop", "name": "Metro 181", "operator": "Metro", "public_transport": "platform"}}, {"type": "node", "id": 7097113427, "lat": 34.1460067, "lon": -118.0983345, "tags": {"bus": "yes", "highway": "bus_stop", "name": "Metro 181", "operator": "Metro", "public_transport": "platform"}}, {"type": "node", "id": 7097113428, "lat": 34.1459756, "lon": -118.1012272, "tags": {"bus": "yes", "highway": "bus_stop", "name": "Metro 181;Foothill Transit 187", "operator": "Foothill Transit;Metro", "public_transport": "platform"}}, {"type": "node", "id": 7097113429, "lat": 34.1459313, "lon": -118.1092967, "tags": {"bench": "no", "bin": "no", "bus": "yes", "highway": "bus_stop", "name": "Metro 181", "operator": "Metro", "public_transport": "platform", "shelter": "no"}}, {"type": "node", "id": 7097113430, "lat": 34.1463846, "lon": -118.113014, "tags": {"bench": "yes", "bin": "no", "bus": "yes", "departures_board": "no", "highway": "bus_stop", "lit": "yes", "name": "Allen & Colorado", "network": "Metro Local;Pasadena Transit", "network:wikidata": "Q77610;Q7141527", "operator": "Los Angeles County Metropolitan Transportation Authority;First Transit", "operator:wikidata": "Q3259702;Q5453919", "public_transport": "platform", "ref": "85", "shelter": "no", "tactile_paving": "no"}}, {"type": "node", "id": 7097113431, "lat": 34.1459074, "lon": -118.11342, "tags": {"bench": "yes", "bus": "yes", "highway": "bus_stop", "name": "Colorado & Allen", "network": "Foothill Transit", "network:wikidata": "Q5466493", "public_transport": "platform", "shelter": "yes"}}, {"type": "node", "id": 7097113432, "lat": 34.1455123, "lon": -118.113248, "tags": {"bench": "yes", "bin": "yes", "bus": "yes", "departures_board": "no", "highway": "bus_stop", "lit": "yes", "name": "Allen & Colorado", "network": "Pasadena Transit", "network:wikidata": "Q7141527", "operator": "First Transit", "operator:wikidata": "Q5453919", "public_transport": "platform", "ref": "25", "shelter": "no", "tactile_paving": "no"}}, {"type": "node", "id": 7097113433, "lat": 34.1458863, "lon": -118.115404, "tags": {"bus": "yes", "highway": "bus_stop", "name": "Colorado & Bonnie", "network": "Metro Local;Pasadena Transit", "network:wikidata": "Q77610;Q7141527", "operator": "Los Angeles County Metropolitan Transportation Authority;First Transit", "operator:wikidata": "Q3259702;Q5453919", "public_transport": "platform"}}, {"type": "node", "id": 7097113434, "lat": 34.1452334, "lon": -118.1155911, "tags": {"bench": "no", "bus": "yes", "highway": "bus_stop", "name": "Bonnie & Colorado", "network": "Pasadena Transit", "network:wikidata": "Q7141527", "operator": "First Transit", "operator:wikidata": "Q5453919", "public_transport": "platform", "shelter": "no"}}, {"type": "node", "id": 7097198654, "lat": 34.1458948, "lon": -118.1175036, "tags": {"bench": "yes", "bus": "yes", "highway": "bus_stop", "name": "Colorado & Sierra Bonita", "network": "Metro Local;Foothill Transit", "network:wikidata": "Q77610;Q5466493", "operator": "Los Angeles County Metropolitan Transportation Authority", "operator:wikidata": "Q3259702", "public_transport": "platform", "route_ref": "187;686", "shelter": "no"}}, {"type": "node", "id": 7097198655, "lat": 34.1458513, "lon": -118.124355, "tags": {"bench": "no", "bus": "yes", "highway": "bus_stop", "name": "Colorado & Chester", "network": "Metro Local", "network:wikidata": "Q77610", "operator": "Los Angeles County Metropolitan Transportation Authority", "operator:wikidata": "Q3259702", "public_transport": "platform", "shelter": "no"}}, {"type": "node", "id": 7097198656, "lat": 34.146041, "lon": -118.1252736, "tags": {"bench": "yes", "bus": "yes", "highway": "bus_stop", "name": "Colorado & Michigan", "network": "Metro Local", "network:wikidata": "Q77610", "operator": "Los Angeles County Metropolitan Transportation Authority", "operator:wikidata": "Q3259702", "public_transport": "platform", "shelter": "no"}}, {"type": "node", "id": 7097198657, "lat": 34.1458324, "lon": -118.127555, "tags": {"bench": "no", "bus": "yes", "highway": "bus_stop", "name": "Colorado & Wilson", "network": "Metro Local", "network:wikidata": "Q77610", "operator": "Los Angeles County Metropolitan Transportation Authority", "operator:wikidata": "Q3259702", "public_transport": "platform", "route_ref": "686", "shelter": "no"}}, {"type": "node", "id": 7097198658, "lat": 34.1460141, "lon": -118.1284247, "tags": {"bench": "yes", "bus": "yes", "highway": "bus_stop", "name": "Colorado & Wilson", "network": "Metro Local", "network:wikidata": "Q77610", "operator": "Los Angeles County Metropolitan Transportation Authority", "operator:wikidata": "Q3259702", "public_transport": "platform", "route_ref": "686", "shelter": "yes"}}, {"type": "node", "id": 7097198659, "lat": 34.1458163, "lon": -118.129064, "tags": {"bench": "yes", "bus": "yes", "highway": "bus_stop", "name": "Colorado & Catalina", "network": "Metro Local;Foothill Transit", "network:wikidata": "Q77610;Q5466493", "operator": "Los Angeles County Metropolitan Transportation Authority", "operator:wikidata": "Q3259702", "public_transport": "platform", "shelter": "yes"}}, {"type": "node", "id": 7097198661, "lat": 34.1457983, "lon": -118.131945, "tags": {"bench": "yes", "bus": "yes", "highway": "bus_stop", "name": "Colorado / Lake", "network": "Metro Local;Foothill Transit", "network:wikidata": "Q77610;Q5466493", "operator": "Los Angeles County Metropolitan Transportation Authority", "operator:wikidata": "Q3259702", "public_transport": "platform", "shelter": "yes"}}, {"type": "node", "id": 7097198662, "lat": 34.1463499, "lon": -118.1322068, "tags": {"bus": "yes", "highway": "bus_stop", "name": "Metro 180, 258;Pasadena Transit 20;LADOT 549", "operator": "LADOT;Metro;Pasadena Transit", "public_transport": "platform"}}, {"type": "node", "id": 7097198663, "lat": 34.1459803, "lon": -118.1355358, "tags": {"bench": "yes", "bin": "yes", "bus": "yes", "departures_board": "no", "highway": "bus_stop", "lit": "yes", "name": "Colorado / Oak Knoll", "network": "Metro Local;Pasadena Transit", "network:wikidata": "Q77610;Q7141527", "operator": "Los Angeles County Metropolitan Transportation Authority;First Transit", "operator:wikidata": "Q3259702;Q5453919", "public_transport": "platform", "ref": "9865", "shelter": "yes", "tactile_paving": "no"}}, {"type": "node", "id": 7097198664, "lat": 34.1459686, "lon": -118.1386839, "tags": {"bench": "yes", "bin": "yes", "bus": "yes", "departures_board": "no", "highway": "bus_stop", "lit": "yes", "name": "Colorado / Madison", "network": "Metro Local;Pasadena Transit;Foothill Transit", "network:wikidata": "Q77610;Q7141527;Q5466493", "operator": "Los Angeles County Metropolitan Transportation Authority;First Transit", "operator:wikidata": "Q3259702;Q5453919", "public_transport": "platform", "ref": "9861", "shelter": "no", "tactile_paving": "no"}}, {"type": "node", "id": 7097198665, "lat": 34.1459551, "lon": -118.1400595, "tags": {"bench": "yes", "bin": "yes", "bus": "yes", "departures_board": "no", "highway": "bus_stop", "lit": "yes", "name": "Colorado & Oakland", "network": "Pasadena Transit", "network:wikidata": "Q7141527", "operator": "First Transit", "operator:wikidata": "Q5453919", "public_transport": "platform", "ref": "9866", "shelter": "no", "tactile_paving": "no"}}, {"type": "node", "id": 7097198666, "lat": 34.1461049, "lon": -118.141329, "tags": {"bench": "yes", "bin": "yes", "bus": "yes", "highway": "bus_stop", "name": "Los Robles & Colorado", "network": "Metro Local;Commuter Express", "network:wikidata": "Q77610;Q112028995", "operator": "Los Angeles County Metropolitan Transportation Authority;Los Angeles Department of Transportation", "operator:wikidata": "Q3259702;Q3259703", "public_transport": "platform", "shelter": "yes", "tactile_paving": "no"}}, {"type": "node", "id": 7097198667, "lat": 34.1457436, "lon": -118.1411271, "tags": {"bus": "yes", "highway": "bus_stop", "name": "Colorado / Los Robles", "network": "Metro Local;Pasadena Transit;Foothill Transit", "network:wikidata": "Q77610;Q7141527;Q5466493", "operator": "Los Angeles County Metropolitan Transportation Authority;First Transit", "operator:wikidata": "Q3259702;Q5453919", "public_transport": "platform", "ref": "3055", "shelter": "yes"}}, {"type": "node", "id": 7097198668, "lat": 34.1455105, "lon": -118.1415838, "tags": {"bus": "yes", "highway": "bus_stop", "name": "LADOT 549", "operator": "LADOT", "public_transport": "platform"}}, {"type": "node", "id": 7097308741, "lat": 34.1457562, "lon": -118.1437532, "tags": {"bench": "yes", "bin": "yes", "bus": "yes", "departures_board": "no", "highway": "bus_stop", "lit": "yes", "name": "Colorado / Garfield", "network": "Metro Local;Pasadena Transit;Foothill Transit", "network:wikidata": "Q77610;Q7141527;Q5466493", "operator": "Los Angeles County Metropolitan Transportation Authority;First Transit", "operator:wikidata": "Q3259702;Q5453919", "public_transport": "platform", "ref": "1324", "shelter": "yes", "tactile_paving": "no"}}, {"type": "node", "id": 7097308742, "lat": 34.1457106, "lon": -118.147081, "tags": {"bench": "yes", "bin": "yes", "bus": "yes", "departures_board": "no", "highway": "bus_stop", "lit": "yes", "name": "Colorado / Arroyo Parkway", "network": "Metro Local;Pasadena Transit;Foothill Transit", "network:wikidata": "Q77610;Q7141527;Q5466493", "operator": "Los Angeles County Metropolitan Transportation Authority;First Transit", "operator:wikidata": "Q3259702;Q5453919", "public_transport": "platform", "ref": "1316", "shelter": "yes", "tactile_paving": "no"}}, {"type": "node", "id": 7097694289, "lat": 34.1783181, "lon": -118.150645, "tags": {"bus": "yes", "highway": "bus_stop", "name": "Metro;Pasadena ARTS 20", "operator": "Metro;Pasadena Transit", "public_transport": "platform"}}, {"type": "node", "id": 7097694290, "lat": 34.1747526, "lon": -118.150637, "tags": {"bus": "yes", "highway": "bus_stop", "name": "Metro;Pasadena ARTS 20", "operator": "Metro;Pasadena Transit", "public_transport": "platform"}}, {"type": "node", "id": 7097694291, "lat": 34.1726647, "lon": -118.150626, "tags": {"bus": "yes", "highway": "bus_stop", "name": "Metro;Pasadena ARTS 20", "operator": "Metro;Pasadena Transit", "public_transport": "platform"}}, {"type": "node", "id": 7097694292, "lat": 34.1723767, "lon": -118.150859, "tags": {"bus": "yes", "highway": "bus_stop", "name": "Metro;Pasadena ARTS 20, 31", "operator": "Metro;Pasadena Transit", "public_transport": "platform"}}, {"type": "node", "id": 7097694293, "lat": 34.1744061, "lon": -118.150847, "tags": {"bus": "yes", "highway": "bus_stop", "name": "Metro;Pasadena ARTS 20, 31", "operator": "Metro;Pasadena Transit", "public_transport": "platform"}}, {"type": "node", "id": 7097694294, "lat": 34.1777702, "lon": -118.150874, "tags": {"bus": "yes", "highway": "bus_stop", "name": "Metro;Pasadena ARTS 20, 31", "operator": "Metro;Pasadena Transit", "public_transport": "platform"}}, {"type": "node", "id": 7097694295, "lat": 34.1806439, "lon": -118.150897, "tags": {"bus": "yes", "highway": "bus_stop", "name": "Metro;Pasadena ARTS 20, 31", "operator": "Metro;Pasadena Transit", "public_transport": "platform"}}, {"type": "node", "id": 7097703821, "lat": 34.1691653, "lon": -118.1505728, "tags": {"bus": "yes", "highway": "bus_stop", "name": "Metro;Pasadena ARTS 20", "operator": "Metro;Pasadena Transit", "public_transport": "platform"}}, {"type": "node", "id": 7097703822, "lat": 34.1689423, "lon": -118.1511818, "tags": {"bus": "yes", "highway": "bus_stop", "name": "Metro 268;Pasadena ARTS 31", "operator": "Metro;Pasadena Transit", "public_transport": "platform"}}, {"type": "node", "id": 7097703823, "lat": 34.168747, "lon": -118.1511, "tags": {"bus": "yes", "highway": "bus_stop", "name": "Metro 268", "operator": "Metro", "public_transport": "platform"}}, {"type": "node", "id": 7097703824, "lat": 34.1664439, "lon": -118.15078, "tags": {"bus": "yes", "highway": "bus_stop", "name": "Metro;Pasadena ARTS 20", "operator": "Metro;Pasadena Transit", "public_transport": "platform"}}, {"type": "node", "id": 7097703825, "lat": 34.1648872, "lon": -118.150551, "tags": {"bus": "yes", "highway": "bus_stop", "name": "Metro;Pasadena ARTS 20", "operator": "Metro;Pasadena Transit", "public_transport": "platform"}}, {"type": "node", "id": 7097703826, "lat": 34.1617787, "lon": -118.150511, "tags": {"bus": "yes", "highway": "bus_stop", "name": "Metro;Pasadena ARTS 20", "operator": "Metro;Pasadena Transit", "public_transport": "platform"}}, {"type": "node", "id": 7097703827, "lat": 34.1615746, "lon": -118.150953, "tags": {"bus": "yes", "highway": "bus_stop", "name": "Pasadena ARTS 51,51s,52", "network": "Pasadena Transit", "network:wikidata": "Q7141527", "network:wikipedia": "en:Pasadena Transit", "operator": "First Transit", "operator:wikidata": "Q5453919", "public_transport": "platform"}}, {"type": "node", "id": 7097703828, "lat": 34.1598478, "lon": -118.150511, "tags": {"bus": "yes", "highway": "bus_stop", "name": "Metro;Pasadena ARTS 20, 51, 51s, 52", "operator": "Metro;Pasadena Transit", "public_transport": "platform"}}, {"type": "node", "id": 7097703829, "lat": 34.1583772, "lon": -118.150518, "tags": {"bus": "yes", "highway": "bus_stop", "name": "Metro;Pasadena ARTS 20, 51, 51s, 52", "operator": "Metro;Pasadena Transit", "public_transport": "platform"}}, {"type": "node", "id": 7097703830, "lat": 34.1544498, "lon": -118.150473, "tags": {"bus": "yes", "highway": "bus_stop", "name": "Metro;Pasadena ARTS 51, 51s, 52", "operator": "Metro;Pasadena Transit", "public_transport": "platform"}}, {"type": "node", "id": 7097703831, "lat": 34.1505033, "lon": -118.150674, "tags": {"bus": "yes", "highway": "bus_stop", "network": "Metro Local;Pasadena Transit", "network:wikidata": "Q77610;Q7141527", "operator": "Los Angeles County Metropolitan Transportation Authority;First Transit", "operator:wikidata": "Q3259702;Q5453919", "public_transport": "platform", "route_ref": "177;260;51"}}, {"type": "node", "id": 7097703832, "lat": 34.1507086, "lon": -118.1503704, "tags": {"bus": "yes", "highway": "bus_stop", "name": "Metro 260;Pasadena ARTS 51, 51s, 52", "operator": "Metro;Pasadena Transit", "public_transport": "platform"}}, {"type": "node", "id": 7097703833, "lat": 34.1504966, "lon": -118.151704, "tags": {"bus": "yes", "highway": "bus_stop", "name": "Metro 260 (Layover)", "operator": "Metro", "public_transport": "platform"}}, {"type": "node", "id": 7097703834, "lat": 34.1495566, "lon": -118.1540223, "tags": {"bus": "yes", "highway": "bus_stop", "name": "Metro 177, 267", "operator": "Metro", "public_transport": "platform"}}, {"type": "node", "id": 7097703835, "lat": 34.1497608, "lon": -118.1539069, "tags": {"bus": "yes", "highway": "bus_stop", "name": "Metro 177, 267", "operator": "Metro", "public_transport": "platform"}}, {"type": "node", "id": 7097703836, "lat": 34.1497552, "lon": -118.151191, "tags": {"bus": "yes", "highway": "bus_stop", "network": "Metro Local", "network:wikidata": "Q77610", "operator": "Los Angeles County Metropolitan Transportation Authority", "operator:wikidata": "Q3259702", "public_transport": "platform", "route_ref": "260"}}, {"type": "node", "id": 7097703837, "lat": 34.149308, "lon": -118.150685, "tags": {"bus": "yes", "highway": "bus_stop", "name": "Metro 260, 660", "operator": "Metro", "public_transport": "platform"}}, {"type": "node", "id": 7097703838, "lat": 34.1492691, "lon": -118.150396, "tags": {"bus": "yes", "highway": "bus_stop", "name": "Metro 660", "operator": "Metro", "public_transport": "platform", "route_ref": "660"}}, {"type": "node", "id": 7097703839, "lat": 34.1494511, "lon": -118.1501908, "tags": {"bus": "yes", "highway": "bus_stop", "name": "Metro 177, 267, 501;Pasadena ARTS 51", "operator": "Metro;Pasadena Transit", "public_transport": "platform"}}, {"type": "node", "id": 7097703840, "lat": 34.1478895, "lon": -118.1506978, "tags": {"bus": "yes", "highway": "bus_stop", "name": "Metro 260", "operator": "Metro", "public_transport": "platform"}}, {"type": "node", "id": 7097703841, "lat": 34.1479284, "lon": -118.150404, "tags": {"bus": "yes", "highway": "bus_stop", "name": "Metro 260, 660", "operator": "Metro", "public_transport": "platform"}}, {"type": "node", "id": 8320472122, "lat": 34.1446182, "lon": -118.157587, "tags": {"bench": "yes", "bin": "yes", "bus": "yes", "departures_board": "timetable", "highway": "bus_stop", "lit": "yes", "name": "Green St & Terrace Dr", "network": "Pasadena Transit", "network:wikidata": "Q7141527", "network:wikipedia": "en:Pasadena Transit", "operator": "First Transit", "operator:wikidata": "Q5453919", "public_transport": "platform", "ref": "2", "shelter": "yes", "tactile_paving": "no"}}, {"type": "node", "id": 8320472123, "lat": 34.144611, "lon": -118.159703, "tags": {"bench": "yes", "bin": "yes", "bus": "yes", "departures_board": "timetable", "highway": "bus_stop", "lit": "yes", "name": "Green St & Orange Grove Blvd", "network": "Pasadena Transit", "network:wikidata": "Q7141527", "operator": "First Transit", "operator:wikidata": "Q5453919", "public_transport": "platform", "ref": "9388", "shelter": "no", "tactile_paving": "no"}}, {"type": "node", "id": 8320472124, "lat": 34.1455206, "lon": -118.154089, "tags": {"bench": "no", "bin": "no", "bus": "yes", "departures_board": "no", "highway": "bus_stop", "lit": "yes", "name": "Pasadena Ave & Colorado Blvd", "network": "Pasadena Transit", "network:wikidata": "Q7141527", "operator": "First Transit", "operator:wikidata": "Q5453919", "public_transport": "platform", "ref": "418", "shelter": "no", "tactile_paving": "no"}}, {"type": "node", "id": 8320472125, "lat": 34.1456733, "lon": -118.1519445, "tags": {"bench": "no", "bin": "no", "bus": "yes", "departures_board": "timetable", "highway": "bus_stop", "lit": "yes", "name": "Colorado / De Lacey", "network": "Metro Local;Pasadena Transit", "network:wikidata": "Q77610;Q7141527", "operator": "Los Angeles County Metropolitan Transportation Authority;First Transit", "operator:wikidata": "Q3259702;Q5453919", "public_transport": "platform", "ref": "7575", "shelter": "no", "tactile_paving": "no"}}, {"type": "node", "id": 8320472126, "lat": 34.1457037, "lon": -118.1485936, "tags": {"bench": "no", "bin": "no", "bus": "yes", "departures_board": "no", "highway": "bus_stop", "lit": "yes", "name": "Colorado / Raymond", "network": "Metro Local;Pasadena Transit", "network:wikidata": "Q77610;Q7141527", "operator": "Los Angeles County Metropolitan Transportation Authority;First Transit", "operator:wikidata": "Q3259702;Q5453919", "public_transport": "platform", "ref": "1348", "shelter": "no", "tactile_paving": "no"}}, {"type": "node", "id": 8320472127, "lat": 34.1457093, "lon": -118.145677, "tags": {"bench": "no", "bin": "no", "bus": "yes", "departures_board": "no", "highway": "bus_stop", "lit": "yes", "name": "Colorado & Marengo", "network": "Pasadena Transit", "network:wikidata": "Q7141527", "operator": "First Transit", "operator:wikidata": "Q5453919", "public_transport": "platform", "ref": "1345", "shelter": "no", "tactile_paving": "no"}}, {"type": "node", "id": 8320472128, "lat": 34.1411102, "lon": -118.132191, "tags": {"bench": "yes", "bin": "yes", "bus": "yes", "departures_board": "timetable", "highway": "bus_stop", "lit": "yes", "name": "Lake / Del Mar", "network": "Metro Local;Pasadena Transit", "operator": "LACMTA;Pasadena Transit", "public_transport": "platform", "ref": "5232", "shelter": "no", "tactile_paving": "no"}}, {"type": "node", "id": 8320472129, "lat": 34.1491572, "lon": -118.113297, "tags": {"bench": "yes", "bin": "no", "bus": "yes", "departures_board": "no", "highway": "bus_stop", "lit": "yes", "name": "Allen / Walnut", "network": "Metro Local;Pasadena Transit", "operator": "LACMTA;Pasadena Transit", "public_transport": "platform", "ref": "11825", "shelter": "no", "tactile_paving": "no"}}, {"type": "node", "id": 8320472130, "lat": 34.1530283, "lon": -118.113733, "tags": {"bench": "no", "bin": "no", "bus": "yes", "departures_board": "timetable", "highway": "bus_stop", "lit": "yes", "name": "Maple St & Allen Ave", "network": "Pasadena Transit", "network:wikidata": "Q7141527", "operator": "First Transit", "operator:wikidata": "Q5453919", "public_transport": "platform", "ref": "9706", "shelter": "no", "tactile_paving": "no"}}, {"type": "node", "id": 8320472132, "lat": 34.1458746, "lon": -118.1491642, "tags": {"bench": "yes", "bin": "yes", "bus": "yes", "departures_board": "timetable", "highway": "bus_stop", "lit": "yes", "name": "Colorado / Raymond", "network": "Metro Local;Pasadena Transit", "network:wikidata": "Q77610;Q7141527", "operator": "Los Angeles County Metropolitan Transportation Authority;First Transit", "operator:wikidata": "Q3259702;Q5453919", "public_transport": "platform", "ref": "09867", "shelter": "no", "tactile_paving": "no"}}, {"type": "node", "id": 8320472133, "lat": 34.1458524, "lon": -118.1507832, "tags": {"bench": "yes", "bin": "yes", "bus": "yes", "departures_board": "timetable", "highway": "bus_stop", "lit": "yes", "name": "Colorado / Fair Oaks", "network": "Metro Local;Pasadena Transit", "network:wikidata": "Q77610;Q7141527", "operator": "Los Angeles County Metropolitan Transportation Authority;First Transit", "operator:wikidata": "Q3259702;Q5453919", "public_transport": "platform", "ref": "09849", "shelter": "no", "tactile_paving": "no"}}, {"type": "node", "id": 8320472134, "lat": 34.1458913, "lon": -118.155801, "tags": {"bench": "no", "bin": "no", "bus": "yes", "departures_board": "no", "highway": "bus_stop", "lit": "yes", "name": "Colorado Blvd & St John Ave", "network": "Pasadena Transit", "network:wikidata": "Q7141527", "network:wikipedia": "en:Pasadena Transit", "operator": "First Transit", "operator:wikidata": "Q5453919", "public_transport": "platform", "ref": "15922", "shelter": "no", "tactile_paving": "no"}}, {"type": "node", "id": 9417362510, "lat": 34.1429596, "lon": -118.141278, "tags": {"bench": "yes", "bus": "yes", "description": "168 S Los Robles Ave, Pasadena, CA 91101", "highway": "bus_stop", "name": "Pasadena, CA - Hilton", "name:en": "Pasadena Bus Stop", "network": "Amtrak Thruway", "operator": "San Joaquin Joint Powers Authority", "public_transport": "platform", "shelter": "yes"}}, {"type": "node", "id": 11031712501, "lat": 34.1409906, "lon": -118.1778791, "tags": {"bench": "no", "bus": "yes", "highway": "bus_stop", "name": "Colorado & Melrose", "network": "Metro Local", "network:wikidata": "Q77610", "operator": "Los Angeles County Metropolitan Transportation Authority", "operator:wikidata": "Q3259702", "public_transport": "platform", "shelter": "no"}}, {"type": "node", "id": 11031712504, "lat": 34.1408419, "lon": -118.1773105, "tags": {"bench": "yes", "bus": "yes", "highway": "bus_stop", "name": "Colorado & Melrose", "network": "Metro Local;Pasadena Transit", "network:wikidata": "Q77610;Q7141527", "operator": "Los Angeles County Metropolitan Transportation Authority;First Transit", "operator:wikidata": "Q3259702;Q5453919", "public_transport": "platform", "shelter": "no"}}, {"type": "node", "id": 11031719705, "lat": 34.1417256, "lon": -118.1743927, "tags": {"bench": "yes", "bus": "yes", "highway": "bus_stop", "name": "Colorado & Club", "network": "Metro Local;Pasadena Transit", "network:wikidata": "Q77610;Q7141527", "operator": "Los Angeles County Metropolitan Transportation Authority;First Transit", "operator:wikidata": "Q3259702;Q5453919", "public_transport": "platform", "shelter": "no"}}, {"type": "node", "id": 11031719706, "lat": 34.1417413, "lon": -118.1739857, "tags": {"bench": "no", "bus": "yes", "highway": "bus_stop", "name": "Colorado & Club", "network": "Metro Local;Pasadena Transit", "network:wikidata": "Q77610;Q7141527", "operator": "Los Angeles County Metropolitan Transportation Authority;First Transit", "operator:wikidata": "Q3259702;Q5453919", "public_transport": "platform", "shelter": "no"}}, {"type": "node", "id": 11031719707, "lat": 34.1426373, "lon": -118.1707071, "tags": {"bench": "no", "bin": "no", "bus": "yes", "highway": "bus_stop", "lit": "yes", "name": "Colorado & San Rafael", "network": "Metro Local;Pasadena Transit", "network:wikidata": "Q77610;Q7141527", "operator": "Los Angeles County Metropolitan Transportation Authority;First Transit", "operator:wikidata": "Q3259702;Q5453919", "public_transport": "platform", "shelter": "no", "tactile_paving": "no"}}, {"type": "node", "id": 11031719713, "lat": 34.1429595, "lon": -118.1700813, "tags": {"bench": "no", "bus": "yes", "highway": "bus_stop", "name": "Colorado & San Rafael", "network": "Metro Local;Pasadena Transit", "network:wikidata": "Q77610;Q7141527", "operator": "Los Angeles County Metropolitan Transportation Authority;First Transit", "operator:wikidata": "Q3259702;Q5453919", "public_transport": "platform", "shelter": "no"}}, {"type": "node", "id": 11031719714, "lat": 34.1456332, "lon": -118.1601275, "tags": {"bench": "yes", "bus": "yes", "highway": "bus_stop", "name": "Colorado & Orange Grove", "network": "Metro Local;Pasadena Transit", "network:wikidata": "Q77610;Q7141527", "operator": "Los Angeles County Metropolitan Transportation Authority;First Transit", "operator:wikidata": "Q3259702;Q5453919", "public_transport": "platform", "shelter": "yes"}}, {"type": "node", "id": 11033729344, "lat": 34.145645, "lon": -118.1573955, "tags": {"bench": "yes", "bin": "yes", "bus": "yes", "highway": "bus_stop", "name": "Colorado / Terrace", "network": "Metro Local;Pasadena Transit", "network:wikidata": "Q77610;Q7141527", "operator": "Los Angeles County Metropolitan Transportation Authority;First Transit", "operator:wikidata": "Q3259702;Q5453919", "public_transport": "platform", "shelter": "yes", "tactile_paving": "no"}}, {"type": "node", "id": 11033729351, "lat": 34.1456919, "lon": -118.1500261, "tags": {"bench": "yes", "bin": "yes", "bus": "yes", "highway": "bus_stop", "name": "Colorado / Fair Oaks", "network": "Metro Local;Pasadena Transit", "network:wikidata": "Q77610;Q7141527", "operator": "Los Angeles County Metropolitan Transportation Authority;First Transit", "operator:wikidata": "Q3259702;Q5453919", "public_transport": "platform", "shelter": "no", "tactile_paving": "no"}}, {"type": "node", "id": 11034484734, "lat": 34.1455169, "lon": -118.1158379, "tags": {"bench": "no", "bus": "yes", "highway": "bus_stop", "name": "Bonnie & Colorado", "network": "Metro Local", "network:wikidata": "Q77610", "operator": "Los Angeles County Metropolitan Transportation Authority", "operator:wikidata": "Q3259702", "public_transport": "platform", "route_ref": "180", "shelter": "no"}}, {"type": "node", "id": 11043416876, "lat": 34.1254166, "lon": -118.1766068, "tags": {"bus": "yes", "highway": "bus_stop", "name": "Avenue 64 & Church", "network": "Pasadena Transit", "network:wikidata": "Q7141527", "operator": "First Transit", "operator:wikidata": "Q5453919", "public_transport": "platform"}}, {"type": "node", "id": 11043416877, "lat": 34.1271443, "lon": -118.1765841, "tags": {"bench": "no", "bus": "yes", "highway": "bus_stop", "name": "Avenue 64 & Burleigh", "network": "Pasadena Transit", "network:wikidata": "Q7141527", "operator": "First Transit", "operator:wikidata": "Q5453919", "public_transport": "platform", "shelter": "no"}}, {"type": "node", "id": 11043416880, "lat": 34.1276406, "lon": -118.1764308, "tags": {"bench": "no", "bus": "yes", "highway": "bus_stop", "name": "Avenue 64 & Burleigh", "network": "Pasadena Transit", "network:wikidata": "Q7141527", "operator": "First Transit", "operator:wikidata": "Q5453919", "public_transport": "platform", "shelter": "no"}}, {"type": "node", "id": 11043416881, "lat": 34.130651, "lon": -118.1771384, "tags": {"bench": "yes", "bus": "yes", "highway": "bus_stop", "name": "Avenue 64 & La Loma", "network": "Pasadena Transit", "network:wikidata": "Q7141527", "operator": "First Transit", "operator:wikidata": "Q5453919", "public_transport": "platform", "shelter": "no"}}, {"type": "node", "id": 11043416882, "lat": 34.130814, "lon": -118.1769048, "tags": {"bench": "yes", "bus": "yes", "highway": "bus_stop", "name": "Avenue 64 & La Loma", "network": "Pasadena Transit", "network:wikidata": "Q7141527", "operator": "First Transit", "operator:wikidata": "Q5453919", "public_transport": "platform", "shelter": "no"}}, {"type": "node", "id": 11043416891, "lat": 34.1406142, "lon": -118.1779271, "tags": {"bench": "yes", "bus": "yes", "highway": "bus_stop", "name": "Melrose & Colorado", "network": "Pasadena Transit", "network:wikidata": "Q7141527", "operator": "First Transit", "operator:wikidata": "Q5453919", "public_transport": "platform", "shelter": "no"}}, {"type": "node", "id": 11080672624, "lat": 34.1402889, "lon": -118.141059, "tags": {"bus": "yes", "departures_board": "no", "highway": "bus_stop", "name": "Del Mar / Los Robles", "operator": "LACMTA", "public_transport": "platform", "shelter": "no"}}, {"type": "node", "id": 11118261647, "lat": 34.1513032, "lon": -118.075162, "tags": {"bus": "yes", "highway": "bus_stop", "name": "Ralphs", "network": "Gateway Coach", "operator": "City of Sierra Madre", "public_transport": "platform"}}]}